[{"OBJECT_NAME":"STARLINK-32156","OBJECT_ID":"2024-132A","EPOCH":"2026-03-09T23:08:15.189216","MEAN_MOTION":15.30185403,"ECCENTRICITY":0.00016075,"INCLINATION":53.1617,"RA_OF_ASC_NODE":51.0684,"ARG_OF_PERICENTER":84.3488,"MEAN_ANOMALY":275.7696,"EPHEMERIS_TYPE":0,"CLASSIFICATION_TYPE":"U","NORAD_CAT_ID":60278,"ELEMENT_SET_NO":999,"REV_AT_EPOCH":9282,"BSTAR":1.2145713e-5,"MEAN_MOTION_DOT":0,"MEAN_MOTION_DDOT":0},{"OBJECT_NAME":"FENGYUN 1C DEB","OBJECT_ID":"1999-025ETT","EPOCH":"2026-03-07T08:30:03.670560","MEAN_MOTION":15.28888299,"ECCENTRICITY":0.00158464,"INCLINATION":99.1103,"RA_OF_ASC_NODE":112.0072,"ARG_OF_PERICENTER":201.0032,"MEAN_ANOMALY":159.0553,"EPHEMERIS_TYPE":0,"CLASSIFICATION_TYPE":"U","NORAD_CAT_ID":38726,"ELEMENT_SET_NO":999,"REV_AT_EPOCH":71135,"BSTAR":0.013792546,"MEAN_MOTION_DOT":0.00409659,"MEAN_MOTION_DDOT":0}]
